[{"OBJECT_NAME":"ONEWEB-0614","OBJECT_ID":"2023-004S","EPOCH":"2025-12-14T05:04:58.379520","MEAN_MOTION":13.11416063,"ECCENTRICITY":0.0001697,"INCLINATION":87.8853,"RA_OF_ASC_NODE":57.9195,"ARG_OF_PERICENTER":114.8677,"MEAN_ANOMALY":245.2628,"EPHEMERIS_TYPE":0,"CLASSIFICATION_TYPE":"U","NORAD_CAT_ID":55156,"ELEMENT_SET_NO":999,"REV_AT_EPOCH":14159,"BSTAR":-0.00094769966,"MEAN_MOTION_DOT":-3.23e-6,"MEAN_MOTION_DDOT":0},{"OBJECT_NAME":"ONEWEB-0616","OBJECT_ID":"2023-004T","EPOCH":"2025-12-14T03:54:01.433376","MEAN_MOTION":13.17648403,"ECCENTRICITY":0.00026231,"INCLINATION":87.912,"RA_OF_ASC_NODE":42.6523,"ARG_OF_PERICENTER":86.9883,"MEAN_ANOMALY":273.1549,"EPHEMERIS_TYPE":0,"CLASSIFICATION_TYPE":"U","NORAD_CAT_ID":55157,"ELEMENT_SET_NO":999,"REV_AT_EPOCH":14333,"BSTAR":-0.00033788081,"MEAN_MOTION_DOT":-1.18e-6,"MEAN_MOTION_DDOT":0},{"OBJECT_NAME":"ONEWEB-0617","OBJECT_ID":"2023-004U","EPOCH":"2025-12-14T04:47:54.473856","MEAN_MOTION":13.11414451,"ECCENTRICITY":0.00014526,"INCLINATION":87.8854,"RA_OF_ASC_NODE":57.9009,"ARG_OF_PERICENTER":112.4453,"MEAN_ANOMALY":247.6829,"EPHEMERIS_TYPE":0,"CLASSIFICATION_TYPE":"U","NORAD_CAT_ID":55158,"ELEMENT_SET_NO":999,"REV_AT_EPOCH":14161,"BSTAR":0.00096070385,"MEAN_MOTION_DOT":3.53e-6,"MEAN_MOTION_DDOT":0},{"OBJECT_NAME":"ONEWEB-0618","OBJECT_ID":"2023-004V","EPOCH":"2025-12-14T05:15:40.338432","MEAN_MOTION":15.10750846,"ECCENTRICITY":0.00102841,"INCLINATION":86.9083,"RA_OF_ASC_NODE":252.6331,"ARG_OF_PERICENTER":258.9287,"MEAN_ANOMALY":101.0796,"EPHEMERIS_TYPE":0,"CLASSIFICATION_TYPE":"U","NORAD_CAT_ID":55159,"ELEMENT_SET_NO":999,"REV_AT_EPOCH":15431,"BSTAR":0.00062993848,"MEAN_MOTION_DOT":0.0001049,"MEAN_MOTION_DDOT":0},{"OBJECT_NAME":"ONEWEB-0619","OBJECT_ID":"2023-004W","EPOCH":"2025-12-14T04:40:11.878752","MEAN_MOTION":13.1765007,"ECCENTRICITY":0.00021578,"INCLINATION":87.9117,"RA_OF_ASC_NODE":42.6197,"ARG_OF_PERICENTER":108.3389,"MEAN_ANOMALY":251.7977,"EPHEMERIS_TYPE":0,"CLASSIFICATION_TYPE":"U","NORAD_CAT_ID":55160,"ELEMENT_SET_NO":999,"REV_AT_EPOCH":14323,"BSTAR":-0.00011739718,"MEAN_MOTION_DOT":-3.3e-7,"MEAN_MOTION_DDOT":0},{"OBJECT_NAME":"ONEWEB-0620","OBJECT_ID":"2023-004X","EPOCH":"2025-12-14T04:40:35.557536","MEAN_MOTION":13.11419281,"ECCENTRICITY":0.00013982,"INCLINATION":87.8855,"RA_OF_ASC_NODE":57.9217,"ARG_OF_PERICENTER":100.4418,"MEAN_ANOMALY":259.6868,"EPHEMERIS_TYPE":0,"CLASSIFICATION_TYPE":"U","NORAD_CAT_ID":55161,"ELEMENT_SET_NO":999,"REV_AT_EPOCH":14158,"BSTAR":0.0014050337,"MEAN_MOTION_DOT":5.11e-6,"MEAN_MOTION_DDOT":0},{"OBJECT_NAME":"ONEWEB-0621","OBJECT_ID":"2023-004Y","EPOCH":"2025-12-14T05:19:37.007904","MEAN_MOTION":13.11415442,"ECCENTRICITY":0.00017947,"INCLINATION":87.8864,"RA_OF_ASC_NODE":57.8874,"ARG_OF_PERICENTER":109.8474,"MEAN_ANOMALY":250.2848,"EPHEMERIS_TYPE":0,"CLASSIFICATION_TYPE":"U","NORAD_CAT_ID":55162,"ELEMENT_SET_NO":999,"REV_AT_EPOCH":14156,"BSTAR":-0.0013860849,"MEAN_MOTION_DOT":-4.79e-6,"MEAN_MOTION_DDOT":0},{"OBJECT_NAME":"ONEWEB-0622","OBJECT_ID":"2023-004Z","EPOCH":"2025-12-14T05:26:57.126912","MEAN_MOTION":13.1141796,"ECCENTRICITY":0.00013482,"INCLINATION":87.8855,"RA_OF_ASC_NODE":57.8952,"ARG_OF_PERICENTER":130.0287,"MEAN_ANOMALY":230.096,"EPHEMERIS_TYPE":0,"CLASSIFICATION_TYPE":"U","NORAD_CAT_ID":55163,"ELEMENT_SET_NO":999,"REV_AT_EPOCH":14155,"BSTAR":-0.0014137366,"MEAN_MOTION_DOT":-4.88e-6,"MEAN_MOTION_DDOT":0},{"OBJECT_NAME":"ONEWEB-0623","OBJECT_ID":"2023-004AA","EPOCH":"2025-12-14T04:32:53.958624","MEAN_MOTION":13.17646943,"ECCENTRICITY":0.00018628,"INCLINATION":87.9111,"RA_OF_ASC_NODE":42.6697,"ARG_OF_PERICENTER":123.614,"MEAN_ANOMALY":236.517,"EPHEMERIS_TYPE":0,"CLASSIFICATION_TYPE":"U","NORAD_CAT_ID":55164,"ELEMENT_SET_NO":999,"REV_AT_EPOCH":14322,"BSTAR":0.00017086166,"MEAN_MOTION_DOT":7.9e-7,"MEAN_MOTION_DDOT":0},{"OBJECT_NAME":"ONEWEB-0624","OBJECT_ID":"2023-004AB","EPOCH":"2025-12-14T01:59:19.444416","MEAN_MOTION":13.12831432,"ECCENTRICITY":0.0003087,"INCLINATION":87.8933,"RA_OF_ASC_NODE":27.3923,"ARG_OF_PERICENTER":104.9657,"MEAN_ANOMALY":255.1814,"EPHEMERIS_TYPE":0,"CLASSIFICATION_TYPE":"U","NORAD_CAT_ID":55165,"ELEMENT_SET_NO":999,"REV_AT_EPOCH":14378,"BSTAR":-0.032145127,"MEAN_MOTION_DOT":-0.00011603,"MEAN_MOTION_DDOT":0},{"OBJECT_NAME":"ONEWEB-0625","OBJECT_ID":"2023-004AC","EPOCH":"2025-12-14T04:18:19.341792","MEAN_MOTION":13.17648544,"ECCENTRICITY":0.00019316,"INCLINATION":87.9109,"RA_OF_ASC_NODE":42.6666,"ARG_OF_PERICENTER":97.0357,"MEAN_ANOMALY":263.0995,"EPHEMERIS_TYPE":0,"CLASSIFICATION_TYPE":"U","NORAD_CAT_ID":55166,"ELEMENT_SET_NO":999,"REV_AT_EPOCH":14321,"BSTAR":-7.66813e-5,"MEAN_MOTION_DOT":-1.7e-7,"MEAN_MOTION_DDOT":0},{"OBJECT_NAME":"ONEWEB-0626","OBJECT_ID":"2023-004AD","EPOCH":"2025-12-14T04:03:44.979840","MEAN_MOTION":13.17650413,"ECCENTRICITY":0.00014518,"INCLINATION":87.9111,"RA_OF_ASC_NODE":42.669,"ARG_OF_PERICENTER":85.9759,"MEAN_ANOMALY":274.1539,"EPHEMERIS_TYPE":0,"CLASSIFICATION_TYPE":"U","NORAD_CAT_ID":55167,"ELEMENT_SET_NO":999,"REV_AT_EPOCH":14321,"BSTAR":0.00014267921,"MEAN_MOTION_DOT":6.8e-7,"MEAN_MOTION_DDOT":0},{"OBJECT_NAME":"ONEWEB-0627","OBJECT_ID":"2023-004AE","EPOCH":"2025-12-14T03:46:44.444640","MEAN_MOTION":13.17648127,"ECCENTRICITY":0.00016946,"INCLINATION":87.9111,"RA_OF_ASC_NODE":42.6717,"ARG_OF_PERICENTER":119.2033,"MEAN_ANOMALY":240.9268,"EPHEMERIS_TYPE":0,"CLASSIFICATION_TYPE":"U","NORAD_CAT_ID":55168,"ELEMENT_SET_NO":999,"REV_AT_EPOCH":14321,"BSTAR":2.2806923e-5,"MEAN_MOTION_DOT":2.2e-7,"MEAN_MOTION_DDOT":0},{"OBJECT_NAME":"ONEWEB-0628","OBJECT_ID":"2023-004AF","EPOCH":"2025-12-14T03:33:05.262048","MEAN_MOTION":13.12316058,"ECCENTRICITY":0.00020303,"INCLINATION":87.8941,"RA_OF_ASC_NODE":27.407,"ARG_OF_PERICENTER":118.4045,"MEAN_ANOMALY":241.7288,"EPHEMERIS_TYPE":0,"CLASSIFICATION_TYPE":"U","NORAD_CAT_ID":55169,"ELEMENT_SET_NO":999,"REV_AT_EPOCH":14376,"BSTAR":-0.0015742305,"MEAN_MOTION_DOT":-5.53e-6,"MEAN_MOTION_DDOT":0},{"OBJECT_NAME":"ONEWEB-0629","OBJECT_ID":"2023-004AG","EPOCH":"2025-12-14T05:00:50.862528","MEAN_MOTION":13.17649152,"ECCENTRICITY":0.00020453,"INCLINATION":87.9109,"RA_OF_ASC_NODE":42.6586,"ARG_OF_PERICENTER":105.0392,"MEAN_ANOMALY":255.0966,"EPHEMERIS_TYPE":0,"CLASSIFICATION_TYPE":"U","NORAD_CAT_ID":55170,"ELEMENT_SET_NO":999,"REV_AT_EPOCH":14322,"BSTAR":0.00012494094,"MEAN_MOTION_DOT":6.1e-7,"MEAN_MOTION_DDOT":0},{"OBJECT_NAME":"ONEWEB-0631","OBJECT_ID":"2023-004AH","EPOCH":"2025-12-14T08:12:16.479360","MEAN_MOTION":13.18686912,"ECCENTRICITY":0.00012346,"INCLINATION":87.9184,"RA_OF_ASC_NODE":12.1438,"ARG_OF_PERICENTER":88.3862,"MEAN_ANOMALY":271.7411,"EPHEMERIS_TYPE":0,"CLASSIFICATION_TYPE":"U","NORAD_CAT_ID":55171,"ELEMENT_SET_NO":999,"REV_AT_EPOCH":14531,"BSTAR":0.00016815859,"MEAN_MOTION_DOT":7.9e-7,"MEAN_MOTION_DDOT":0}]
