ONEWEB-0614             
1 55156U 23004S   25348.21178680 -.00000323  00000+0 -94770-3 0  9995
2 55156  87.8853  57.9195 0001697 114.8677 245.2628 13.11416063141591
ONEWEB-0616             
1 55157U 23004T   25348.16251659 -.00000118  00000+0 -33788-3 0  9992
2 55157  87.9120  42.6523 0002623  86.9883 273.1549 13.17648403143331
ONEWEB-0617             
1 55158U 23004U   25348.19993604  .00000353  00000+0  96070-3 0  9991
2 55158  87.8854  57.9009 0001452 112.4453 247.6829 13.11414451141614
ONEWEB-0618             
1 55159U 23004V   25348.21921688  .00010490  00000+0  62994-3 0  9999
2 55159  86.9083 252.6331 0010284 258.9287 101.0796 15.10750846154314
ONEWEB-0619             
1 55160U 23004W   25348.19458193 -.00000033  00000+0 -11740-3 0  9991
2 55160  87.9117  42.6197 0002157 108.3389 251.7977 13.17650070143239
ONEWEB-0620             
1 55161U 23004X   25348.19485599  .00000511  00000+0  14050-2 0  9997
2 55161  87.8855  57.9217 0001398 100.4418 259.6868 13.11419281141585
ONEWEB-0621             
1 55162U 23004Y   25348.22195611 -.00000479  00000+0 -13861-2 0  9999
2 55162  87.8864  57.8874 0001794 109.8474 250.2848 13.11415442141567
ONEWEB-0622             
1 55163U 23004Z   25348.22705008 -.00000488  00000+0 -14137-2 0  9994
2 55163  87.8855  57.8952 0001348 130.0287 230.0960 13.11417960141555
ONEWEB-0623             
1 55164U 23004AA  25348.18951341  .00000079  00000+0  17086-3 0  9994
2 55164  87.9111  42.6697 0001862 123.6140 236.5170 13.17646943143228
ONEWEB-0624             
1 55165U 23004AB  25348.08286394 -.00011603  00000+0 -32145-1 0  9991
2 55165  87.8933  27.3923 0003087 104.9657 255.1814 13.12831432143785
ONEWEB-0625             
1 55166U 23004AC  25348.17939053 -.00000017  00000+0 -76681-4 0  9992
2 55166  87.9109  42.6666 0001931  97.0357 263.0995 13.17648544143212
ONEWEB-0626             
1 55167U 23004AD  25348.16927060  .00000068  00000+0  14268-3 0  9993
2 55167  87.9111  42.6690 0001451  85.9759 274.1539 13.17650413143217
ONEWEB-0627             
1 55168U 23004AE  25348.15745885  .00000022  00000+0  22807-4 0  9995
2 55168  87.9111  42.6717 0001694 119.2033 240.9268 13.17648127143212
ONEWEB-0628             
1 55169U 23004AF  25348.14797757 -.00000553  00000+0 -15742-2 0  9999
2 55169  87.8941  27.4070 0002030 118.4045 241.7288 13.12316058143766
ONEWEB-0629             
1 55170U 23004AG  25348.20892202  .00000061  00000+0  12494-3 0  9993
2 55170  87.9109  42.6586 0002045 105.0392 255.0966 13.17649152143220
ONEWEB-0631             
1 55171U 23004AH  25348.34185740  .00000079  00000+0  16816-3 0  9992
2 55171  87.9184  12.1438 0001234  88.3862 271.7411 13.18686912145314
